[{"OBJECT_NAME":"STARLINK-32124","OBJECT_ID":"2024-132W","EPOCH":"2026-03-09T06:34:41.849472","MEAN_MOTION":15.30183261,"ECCENTRICITY":0.000119,"INCLINATION":53.1609,"RA_OF_ASC_NODE":54.5825,"ARG_OF_PERICENTER":101.6551,"MEAN_ANOMALY":258.4584,"EPHEMERIS_TYPE":0,"CLASSIFICATION_TYPE":"U","NORAD_CAT_ID":60298,"ELEMENT_SET_NO":999,"REV_AT_EPOCH":9149,"BSTAR":1.927397e-5,"MEAN_MOTION_DOT":2.12e-6,"MEAN_MOTION_DDOT":0},{"OBJECT_NAME":"FENGYUN 1C DEB","OBJECT_ID":"1999-025AQG","EPOCH":"2026-03-09T10:43:06.043872","MEAN_MOTION":15.25746961,"ECCENTRICITY":0.00178142,"INCLINATION":98.9311,"RA_OF_ASC_NODE":250.2123,"ARG_OF_PERICENTER":328.3876,"MEAN_ANOMALY":31.6286,"EPHEMERIS_TYPE":0,"CLASSIFICATION_TYPE":"U","NORAD_CAT_ID":30674,"ELEMENT_SET_NO":999,"REV_AT_EPOCH":98658,"BSTAR":0.015201752,"MEAN_MOTION_DOT":0.00411052,"MEAN_MOTION_DDOT":0}]
